QIANFAN-17              
1 60395U 24140S   25275.18734333  .00000127  00000+0  17748-3 0  9996
2 60395  88.9774 306.8459 0016644  57.7921 302.4842 13.50972212 58474
QIANFAN-18              
1 60396U 24140T   25275.16679389  .00000115  00000+0  15872-3 0  9997
2 60396  88.9765 306.3869 0015517  42.4120 317.8227 13.50973837 57868
QIANFAN-19              
1 61552U 24185A   25275.19389850  .00001747  00000+0  90976-3 0  9995
2 61552  88.9757  86.1403 0007515 158.4870 201.6633 14.14183229 59558
QIANFAN-20              
1 61553U 24185B   25275.16284126  .00001609  00000+0  92647-3 0  9997
2 61553  88.9755  86.3957 0005085 190.3378 169.7702 14.08733773 59415
QIANFAN-21              
1 61554U 24185C   25275.21274174  .00002335  00000+0  10415-2 0  9995
2 61554  88.9673  85.3577 0008968 228.5719 131.4702 14.22458169 59806
QIANFAN-22              
1 61555U 24185D   25275.18747472  .00000587  00000+0  49665-3 0  9995
2 61555  88.9740  87.0867 0005809 196.8597 163.2382 13.86265304 59022
QIANFAN-23              
1 61556U 24185E   25275.19942434  .00002078  00000+0  10438-2 0  9994
2 61556  88.9750  85.9827 0007900 171.4572 188.6751 14.16172806 59628
QIANFAN-24              
1 61557U 24185F   25275.20565126  .00003028  00000+0  13212-2 0  9995
2 61557  88.9731  85.5040 0010231 159.9777 200.1819 14.23663432 59847
